[{"OBJECT_NAME":"S-NET B","OBJECT_ID":"2018-014H","EPOCH":"2026-03-09T22:45:17.995680","MEAN_MOTION":15.15604995,"ECCENTRICITY":0.0009334,"INCLINATION":97.5436,"RA_OF_ASC_NODE":334.3767,"ARG_OF_PERICENTER":8.7272,"MEAN_ANOMALY":351.4121,"EPHEMERIS_TYPE":0,"CLASSIFICATION_TYPE":"U","NORAD_CAT_ID":43187,"ELEMENT_SET_NO":999,"REV_AT_EPOCH":44372,"BSTAR":0.00040571081,"MEAN_MOTION_DOT":7.649e-5,"MEAN_MOTION_DDOT":0},{"OBJECT_NAME":"CONNECTA IOT-14","OBJECT_ID":"2026-004AQ","EPOCH":"2026-03-09T22:44:46.185792","MEAN_MOTION":15.17901608,"ECCENTRICITY":0.00089335,"INCLINATION":97.4512,"RA_OF_ASC_NODE":69.4576,"ARG_OF_PERICENTER":336.151,"MEAN_ANOMALY":23.9308,"EPHEMERIS_TYPE":0,"CLASSIFICATION_TYPE":"U","NORAD_CAT_ID":67401,"ELEMENT_SET_NO":999,"REV_AT_EPOCH":870,"BSTAR":0.00024848153,"MEAN_MOTION_DOT":4.975e-5,"MEAN_MOTION_DDOT":0}]
